STARLINK-36924          
1 68054U 26041Q   26069.41668981 -.01567728  68986-3 -47759-2 0  9994
2 68054  53.1586  58.4947 0000713  68.7779 275.8691 15.91413999  2499
STARLINK-35998          
1 68055U 26041R   26069.41668981 -.01568746  68980-3 -48116-2 0  9998
2 68055  53.1588  58.4998 0000656  73.8748 267.9957 15.91282311  2452
STARLINK-36845          
1 68056U 26041S   26069.41668981 -.01556052  68132-3 -47084-2 0  9998
2 68056  53.1584  58.4889 0000652  63.6893 283.6700 15.91543184  2495
STARLINK-36954          
1 68057U 26041T   26069.41668981 -.01549916  67725-3 -46588-2 0  9995
2 68057  53.1587  58.4830 0000616  69.3520 280.7658 15.91670795  2494
STARLINK-36899          
1 68058U 26041U   26069.41668981 -.01527097  65991-3 -45593-2 0  9990
2 68058  53.1587  58.4781 0000577  67.3469 285.2357 15.91797819  2499
STARLINK-36917          
1 68059U 26041V   26069.41668981 -.01522215  65682-3 -45164-2 0  9999
2 68059  53.1585  58.4721 0000681  69.8393 285.7609 15.91917793  2491
STARLINK-36959          
1 68060U 26041W   26069.41668981 -.01547394  67784-3 -45564-2 0  9995
2 68060  53.1586  58.4661 0000603  67.5758 290.5360 15.92068044  2496
STARLINK-36915          
1 68061U 26041X   26069.41668981 -.01531258  66571-3 -44808-2 0  9991
2 68061  53.1585  58.4606 0000614  65.4770 295.3741 15.92185708  2491
STARLINK-36952          
1 68062U 26041Y   26069.41668981 -.01543816  67662-3 -44869-2 0  9994
2 68062  53.1587  58.4551 0000625  74.3400 289.4015 15.92318622  2495
STARLINK-37000          
1 68063U 26041Z   26069.41668981 -.01558047  68897-3 -44982-2 0  9994
2 68063  53.1587  58.4484 0000662  70.1719 296.4938 15.92448878  2498
STARLINK-36996          
1 68064U 26041AA  26069.41668981 -.01536115  67204-3 -44083-2 0  9990
2 68064  53.1586  58.4426 0000651  66.6579 302.9682 15.92560555  2492
STARLINK-36836          
1 68065U 26041AB  26069.41668981 -.01531895  67033-3 -43382-2 0  9992
2 68065  53.1586  58.4310 0000588  68.5372 306.5535 15.92813815  2493
