CCSDS_OMM_VERS = 2.0
CREATION_DATE  = 
ORIGINATOR     = 

OBJECT_NAME    = STARLINK-36924
OBJECT_ID      = 2026-041Q
CENTER_NAME    = EARTH
REF_FRAME      = TEME
TIME_SYSTEM    = UTC
MEAN_ELEMENT_THEORY = SGP/SGP4

EPOCH          = 2026-03-10T10:00:01.999584
MEAN_MOTION    = 15.91413999
ECCENTRICITY   = .0000713
INCLINATION    = 53.1586
RA_OF_ASC_NODE = 58.4947
ARG_OF_PERICENTER = 68.7779
MEAN_ANOMALY   = 275.8691

EPHEMERIS_TYPE = 0
CLASSIFICATION_TYPE = U
NORAD_CAT_ID   = 68054
ELEMENT_SET_NO = 999
REV_AT_EPOCH   = 249
BSTAR          = -.47759E-2
MEAN_MOTION_DOT = -.1567728E-1
MEAN_MOTION_DDOT = .68986E-3

CCSDS_OMM_VERS = 2.0
CREATION_DATE  = 
ORIGINATOR     = 

OBJECT_NAME    = STARLINK-35998
OBJECT_ID      = 2026-041R
CENTER_NAME    = EARTH
REF_FRAME      = TEME
TIME_SYSTEM    = UTC
MEAN_ELEMENT_THEORY = SGP/SGP4

EPOCH          = 2026-03-10T10:00:01.999584
MEAN_MOTION    = 15.91282311
ECCENTRICITY   = .0000656
INCLINATION    = 53.1588
RA_OF_ASC_NODE = 58.4998
ARG_OF_PERICENTER = 73.8748
MEAN_ANOMALY   = 267.9957

EPHEMERIS_TYPE = 0
CLASSIFICATION_TYPE = U
NORAD_CAT_ID   = 68055
ELEMENT_SET_NO = 999
REV_AT_EPOCH   = 245
BSTAR          = -.48116E-2
MEAN_MOTION_DOT = -.1568746E-1
MEAN_MOTION_DDOT = .6898E-3

CCSDS_OMM_VERS = 2.0
CREATION_DATE  = 
ORIGINATOR     = 

OBJECT_NAME    = STARLINK-36845
OBJECT_ID      = 2026-041S
CENTER_NAME    = EARTH
REF_FRAME      = TEME
TIME_SYSTEM    = UTC
MEAN_ELEMENT_THEORY = SGP/SGP4

EPOCH          = 2026-03-10T10:00:01.999584
MEAN_MOTION    = 15.91543184
ECCENTRICITY   = .0000652
INCLINATION    = 53.1584
RA_OF_ASC_NODE = 58.4889
ARG_OF_PERICENTER = 63.6893
MEAN_ANOMALY   = 283.6700

EPHEMERIS_TYPE = 0
CLASSIFICATION_TYPE = U
NORAD_CAT_ID   = 68056
ELEMENT_SET_NO = 999
REV_AT_EPOCH   = 249
BSTAR          = -.47084E-2
MEAN_MOTION_DOT = -.1556052E-1
MEAN_MOTION_DDOT = .68132E-3

CCSDS_OMM_VERS = 2.0
CREATION_DATE  = 
ORIGINATOR     = 

OBJECT_NAME    = STARLINK-36954
OBJECT_ID      = 2026-041T
CENTER_NAME    = EARTH
REF_FRAME      = TEME
TIME_SYSTEM    = UTC
MEAN_ELEMENT_THEORY = SGP/SGP4

EPOCH          = 2026-03-10T10:00:01.999584
MEAN_MOTION    = 15.91670795
ECCENTRICITY   = .0000616
INCLINATION    = 53.1587
RA_OF_ASC_NODE = 58.4830
ARG_OF_PERICENTER = 69.3520
MEAN_ANOMALY   = 280.7658

EPHEMERIS_TYPE = 0
CLASSIFICATION_TYPE = U
NORAD_CAT_ID   = 68057
ELEMENT_SET_NO = 999
REV_AT_EPOCH   = 249
BSTAR          = -.46588E-2
MEAN_MOTION_DOT = -.1549916E-1
MEAN_MOTION_DDOT = .67725E-3

CCSDS_OMM_VERS = 2.0
CREATION_DATE  = 
ORIGINATOR     = 

OBJECT_NAME    = STARLINK-36899
OBJECT_ID      = 2026-041U
CENTER_NAME    = EARTH
REF_FRAME      = TEME
TIME_SYSTEM    = UTC
MEAN_ELEMENT_THEORY = SGP/SGP4

EPOCH          = 2026-03-10T10:00:01.999584
MEAN_MOTION    = 15.91797819
ECCENTRICITY   = .0000577
INCLINATION    = 53.1587
RA_OF_ASC_NODE = 58.4781
ARG_OF_PERICENTER = 67.3469
MEAN_ANOMALY   = 285.2357

EPHEMERIS_TYPE = 0
CLASSIFICATION_TYPE = U
NORAD_CAT_ID   = 68058
ELEMENT_SET_NO = 999
REV_AT_EPOCH   = 249
BSTAR          = -.45593E-2
MEAN_MOTION_DOT = -.1527097E-1
MEAN_MOTION_DDOT = .65991E-3

CCSDS_OMM_VERS = 2.0
CREATION_DATE  = 
ORIGINATOR     = 

OBJECT_NAME    = STARLINK-36917
OBJECT_ID      = 2026-041V
CENTER_NAME    = EARTH
REF_FRAME      = TEME
TIME_SYSTEM    = UTC
MEAN_ELEMENT_THEORY = SGP/SGP4

EPOCH          = 2026-03-10T10:00:01.999584
MEAN_MOTION    = 15.91917793
ECCENTRICITY   = .0000681
INCLINATION    = 53.1585
RA_OF_ASC_NODE = 58.4721
ARG_OF_PERICENTER = 69.8393
MEAN_ANOMALY   = 285.7609

EPHEMERIS_TYPE = 0
CLASSIFICATION_TYPE = U
NORAD_CAT_ID   = 68059
ELEMENT_SET_NO = 999
REV_AT_EPOCH   = 249
BSTAR          = -.45164E-2
MEAN_MOTION_DOT = -.1522215E-1
MEAN_MOTION_DDOT = .65682E-3

CCSDS_OMM_VERS = 2.0
CREATION_DATE  = 
ORIGINATOR     = 

OBJECT_NAME    = STARLINK-36959
OBJECT_ID      = 2026-041W
CENTER_NAME    = EARTH
REF_FRAME      = TEME
TIME_SYSTEM    = UTC
MEAN_ELEMENT_THEORY = SGP/SGP4

EPOCH          = 2026-03-10T10:00:01.999584
MEAN_MOTION    = 15.92068044
ECCENTRICITY   = .0000603
INCLINATION    = 53.1586
RA_OF_ASC_NODE = 58.4661
ARG_OF_PERICENTER = 67.5758
MEAN_ANOMALY   = 290.5360

EPHEMERIS_TYPE = 0
CLASSIFICATION_TYPE = U
NORAD_CAT_ID   = 68060
ELEMENT_SET_NO = 999
REV_AT_EPOCH   = 249
BSTAR          = -.45564E-2
MEAN_MOTION_DOT = -.1547394E-1
MEAN_MOTION_DDOT = .67784E-3

CCSDS_OMM_VERS = 2.0
CREATION_DATE  = 
ORIGINATOR     = 

OBJECT_NAME    = STARLINK-36915
OBJECT_ID      = 2026-041X
CENTER_NAME    = EARTH
REF_FRAME      = TEME
TIME_SYSTEM    = UTC
MEAN_ELEMENT_THEORY = SGP/SGP4

EPOCH          = 2026-03-10T10:00:01.999584
MEAN_MOTION    = 15.92185708
ECCENTRICITY   = .0000614
INCLINATION    = 53.1585
RA_OF_ASC_NODE = 58.4606
ARG_OF_PERICENTER = 65.4770
MEAN_ANOMALY   = 295.3741

EPHEMERIS_TYPE = 0
CLASSIFICATION_TYPE = U
NORAD_CAT_ID   = 68061
ELEMENT_SET_NO = 999
REV_AT_EPOCH   = 249
BSTAR          = -.44808E-2
MEAN_MOTION_DOT = -.1531258E-1
MEAN_MOTION_DDOT = .66571E-3

CCSDS_OMM_VERS = 2.0
CREATION_DATE  = 
ORIGINATOR     = 

OBJECT_NAME    = STARLINK-36952
OBJECT_ID      = 2026-041Y
CENTER_NAME    = EARTH
REF_FRAME      = TEME
TIME_SYSTEM    = UTC
MEAN_ELEMENT_THEORY = SGP/SGP4

EPOCH          = 2026-03-10T10:00:01.999584
MEAN_MOTION    = 15.92318622
ECCENTRICITY   = .0000625
INCLINATION    = 53.1587
RA_OF_ASC_NODE = 58.4551
ARG_OF_PERICENTER = 74.3400
MEAN_ANOMALY   = 289.4015

EPHEMERIS_TYPE = 0
CLASSIFICATION_TYPE = U
NORAD_CAT_ID   = 68062
ELEMENT_SET_NO = 999
REV_AT_EPOCH   = 249
BSTAR          = -.44869E-2
MEAN_MOTION_DOT = -.1543816E-1
MEAN_MOTION_DDOT = .67662E-3

CCSDS_OMM_VERS = 2.0
CREATION_DATE  = 
ORIGINATOR     = 

OBJECT_NAME    = STARLINK-37000
OBJECT_ID      = 2026-041Z
CENTER_NAME    = EARTH
REF_FRAME      = TEME
TIME_SYSTEM    = UTC
MEAN_ELEMENT_THEORY = SGP/SGP4

EPOCH          = 2026-03-10T10:00:01.999584
MEAN_MOTION    = 15.92448878
ECCENTRICITY   = .0000662
INCLINATION    = 53.1587
RA_OF_ASC_NODE = 58.4484
ARG_OF_PERICENTER = 70.1719
MEAN_ANOMALY   = 296.4938

EPHEMERIS_TYPE = 0
CLASSIFICATION_TYPE = U
NORAD_CAT_ID   = 68063
ELEMENT_SET_NO = 999
REV_AT_EPOCH   = 249
BSTAR          = -.44982E-2
MEAN_MOTION_DOT = -.1558047E-1
MEAN_MOTION_DDOT = .68897E-3

CCSDS_OMM_VERS = 2.0
CREATION_DATE  = 
ORIGINATOR     = 

OBJECT_NAME    = STARLINK-36996
OBJECT_ID      = 2026-041AA
CENTER_NAME    = EARTH
REF_FRAME      = TEME
TIME_SYSTEM    = UTC
MEAN_ELEMENT_THEORY = SGP/SGP4

EPOCH          = 2026-03-10T10:00:01.999584
MEAN_MOTION    = 15.92560555
ECCENTRICITY   = .0000651
INCLINATION    = 53.1586
RA_OF_ASC_NODE = 58.4426
ARG_OF_PERICENTER = 66.6579
MEAN_ANOMALY   = 302.9682

EPHEMERIS_TYPE = 0
CLASSIFICATION_TYPE = U
NORAD_CAT_ID   = 68064
ELEMENT_SET_NO = 999
REV_AT_EPOCH   = 249
BSTAR          = -.44083E-2
MEAN_MOTION_DOT = -.1536115E-1
MEAN_MOTION_DDOT = .67204E-3

CCSDS_OMM_VERS = 2.0
CREATION_DATE  = 
ORIGINATOR     = 

OBJECT_NAME    = STARLINK-36836
OBJECT_ID      = 2026-041AB
CENTER_NAME    = EARTH
REF_FRAME      = TEME
TIME_SYSTEM    = UTC
MEAN_ELEMENT_THEORY = SGP/SGP4

EPOCH          = 2026-03-10T10:00:01.999584
MEAN_MOTION    = 15.92813815
ECCENTRICITY   = .0000588
INCLINATION    = 53.1586
RA_OF_ASC_NODE = 58.4310
ARG_OF_PERICENTER = 68.5372
MEAN_ANOMALY   = 306.5535

EPHEMERIS_TYPE = 0
CLASSIFICATION_TYPE = U
NORAD_CAT_ID   = 68065
ELEMENT_SET_NO = 999
REV_AT_EPOCH   = 249
BSTAR          = -.43382E-2
MEAN_MOTION_DOT = -.1531895E-1
MEAN_MOTION_DDOT = .67033E-3

